{
  "norad_id": 62399,
  "name": "BANDWAGON-2 OBJECT Y",
  "history": [
    {
      "epoch": "2026-03-28T00:20:05.936640Z",
      "apogee_km": 440.9470168090038,
      "perigee_km": 431.3846419346037,
      "latitude_deg": 3.032578262109279e-05,
      "longitude_deg": 160.89680133850874,
      "height_km": 439.66415142924586,
      "semi_major_axis_km": 6814.302829371803,
      "eccentricity": 0.00070164,
      "inclination_deg": 44.9996,
      "raan_deg": 351.362,
      "arg_perigee_deg": 137.1767,
      "mean_anomaly_deg": 222.967,
      "mean_motion_rev_day": 15.43372001
    }
  ]
}